[Satellite]
VERSION=1.1
NAME=ITF-2
NICKNAME=ITF-2
TLE1=1 41932U 98067KU  18020.88107012  .00022524  00000-0  20216-3 0  9996
TLE2=2 41932  51.6387  15.0207 0004763  14.0608 346.0520 15.68180280 57590
